NORAD_CAT_ID,OBJECT_NAME,OBJECT_TYPE,EPOCH,MEAN_MOTION,ECCENTRICITY,INCLINATION,RA_OF_ASC_NODE,ARG_OF_PERICENTER,MEAN_ANOMALY,BSTAR,MEAN_MOTION_DOT,MEAN_MOTION_DDOT,TLE_LINE0,TLE_LINE1,TLE_LINE2,SEMIMAJOR_AXIS,PERIOD,APOGEE,PERIGEE,DECAYED
53421.0,STARLINK-4545,PAYLOAD,2023-08-27 13:42:42,15.08856785,0.0001261,53.2181,307.1359,97.1399,262.9737,0.00021834,3.19e-05,0.0,0 STARLINK-4545,1 53421U 22097AK  23239.57132941  .00003190  00000-0  21834-3 0  9990,2 53421  53.2181 307.1359 0001261  97.1399 262.9737 15.08856785 58960,6917.829,95.436,540.566,538.822,0.0
53421.0,STARLINK-4545,PAYLOAD,2023-08-28 10:22:44,15.08838095,0.0001361,53.2176,303.2723,84.4074,275.7073,-5.9585e-05,-1.236e-05,0.0,0 STARLINK-4545,1 53421U 22097AK  23240.43246282 -.00001236  00000-0 -59585-4 0  9997,2 53421  53.2176 303.2723 0001361  84.4074 275.7073 15.08838095 58639,6917.886,95.438,540.693,538.81,0.0
53421.0,STARLINK-4545,PAYLOAD,2023-08-28 13:33:31,15.08839167,0.0001349,53.2174,302.6773,86.5318,273.5829,-3.0521e-05,-7.74e-06,0.0,0 STARLINK-4545,1 53421U 22097AK  23240.56494256 -.00000774  00000-0 -30521-4 0  9992,2 53421  53.2174 302.6773 0001349  86.5318 273.5829 15.08839167 59115,6917.883,95.438,540.681,538.815,0.0
53421.0,STARLINK-4545,PAYLOAD,2023-08-29 11:48:54,15.08844797,0.0001393,53.2173,298.514,88.9989,271.1162,4.8813e-05,4.89e-06,0.0,0 STARLINK-4545,1 53421U 22097AK  23241.49230170  .00000489  00000-0  48813-4 0  9992,2 53421  53.2173 298.5140 0001393  88.9989 271.1162 15.08844797 58796,6917.866,95.437,540.694,538.767,0.0
53421.0,STARLINK-4545,PAYLOAD,2023-08-30 08:28:56,15.08835706,0.0001476,53.2171,294.649,91.3485,268.7677,0.00015562,2.189e-05,0.0,0 STARLINK-4545,1 53421U 22097AK  23242.35343007  .00002189  00000-0  15562-3 0  9995,2 53421  53.2171 294.6490 0001476  91.3485 268.7677 15.08835706 58928,6917.894,95.438,540.78,538.737,0.0
53421.0,STARLINK-4545,PAYLOAD,2023-08-30 14:50:28,15.08840527,0.0001521,53.2166,293.4591,95.0097,265.1069,0.00020016,2.899e-05,0.0,0 STARLINK-4545,1 53421U 22097AK  23242.61838807  .00002899  00000-0  20016-3 0  9999,2 53421  53.2166 293.4591 0001521  95.0097 265.1069 15.08840527 59421,6917.879,95.438,540.796,538.692,0.0
53421.0,STARLINK-4545,PAYLOAD,2023-08-30 22:47:24,15.08836346,0.000135,53.2166,291.9732,93.995,266.1197,0.00010833,1.436e-05,0.0,0 STARLINK-4545,1 53421U 22097AK  23242.94959063  .00001436  00000-0  10833-3 0  9995,2 53421  53.2166 291.9732 0001350  93.9950 266.1197 15.08836346 59478,6917.892,95.438,540.69,538.823,0.0
53421.0,STARLINK-4545,PAYLOAD,2023-09-01 03:24:21,15.08828129,9.49e-05,53.216,286.626,37.8759,322.2299,0.00057136,8.814e-05,0.0,0 STARLINK-4545,1 53421U 22097AK  23244.14191749  .00008814  00000-0  57136-3 0  9992,2 53421  53.2160 286.6260 0000949  37.8759 322.2299 15.08828129 59192,6917.917,95.438,540.438,539.125,0.0
53421.0,STARLINK-4545,PAYLOAD,2023-09-01 09:45:53,15.08839818,0.000134,53.2158,285.4325,95.8019,264.3126,0.00030964,4.643e-05,0.0,0 STARLINK-4545,1 53421U 22097AK  23244.40687147  .00004643  00000-0  30964-3 0  9999,2 53421  53.2158 285.4325 0001340  95.8019 264.3126 15.08839818 59234,6917.881,95.438,540.673,538.819,0.0
53421.0,STARLINK-4545,PAYLOAD,2023-09-01 19:18:12,15.08838551,0.0001791,53.2157,283.6456,93.2916,266.8281,3.1345e-05,2.11e-06,0.0,0 STARLINK-4545,1 53421U 22097AK  23244.80431033  .00000211  00000-0  31345-4 0  9996,2 53421  53.2157 283.6456 0001791  93.2916 266.8281 15.08838551 59755,6917.885,95.438,540.989,538.511,0.0
53421.0,STARLINK-4545,PAYLOAD,2023-09-02 09:36:40,15.08845591,0.0001455,53.2153,280.9704,98.9463,261.1694,0.00014481,2.018e-05,0.0,0 STARLINK-4545,1 53421U 22097AK  23245.40046640  .00002018  00000-0  14481-3 0  9997,2 53421  53.2153 280.9704 0001455  98.9463 261.1694 15.08845591 59841,6917.863,95.437,540.735,538.722,0.0
53421.0,STARLINK-4545,PAYLOAD,2023-09-02 19:08:58,15.0884909,0.0001243,53.2161,279.1865,93.7474,266.366,0.00021855,3.193e-05,0.0,0 STARLINK-4545,1 53421U 22097AK  23245.79790424  .00003193  00000-0  21855-3 0  9993,2 53421  53.2161 279.1865 0001243  93.7474 266.3660 15.08849090 59903,6917.853,95.437,540.577,538.858,0.0
53421.0,STARLINK-4545,PAYLOAD,2023-09-03 06:16:41,15.08838845,0.0001479,53.2154,277.104,94.7483,265.3678,3.4667e-05,2.64e-06,0.0,0 STARLINK-4545,1 53421U 22097AK  23246.26158907  .00000264  00000-0  34667-4 0  9992,2 53421  53.2154 277.1040 0001479  94.7483 265.3678 15.08838845 59511,6917.884,95.438,540.772,538.726,0.0
53421.0,STARLINK-4545,PAYLOAD,2023-09-03 12:38:13,15.08845457,0.0001551,53.2161,275.9147,91.6277,268.4892,8.4582e-05,1.059e-05,0.0,0 STARLINK-4545,1 53421U 22097AK  23246.52654561  .00001059  00000-0  84582-4 0  9992,2 53421  53.2161 275.9147 0001551  91.6277 268.4892 15.08845457 60017,6917.864,95.437,540.802,538.656,0.0
53421.0,STARLINK-4545,PAYLOAD,2023-09-03 18:59:46,15.08833952,0.0001401,53.2161,274.7249,91.6104,268.5048,-7.6176e-05,-1.5e-05,0.0,0 STARLINK-4545,1 53421U 22097AK  23246.79151140 -.00001500  00000-0 -76176-4 0  9999,2 53421  53.2161 274.7249 0001401  91.6104 268.5048 15.08833952 59592,6917.899,95.438,540.733,538.795,0.0
53421.0,STARLINK-4545,PAYLOAD,2023-09-04 10:53:38,15.0883265,0.0001548,53.2164,271.7522,92.1256,267.9913,-4.3968e-05,-9.88e-06,0.0,0 STARLINK-4545,1 53421U 22097AK  23247.45391603 -.00000988  00000-0 -43968-4 0  9995,2 53421  53.2164 271.7522 0001548  92.1256 267.9913 15.08832650 60154,6917.903,95.438,540.839,538.697,0.0
53421.0,STARLINK-4545,PAYLOAD,2023-09-05 01:12:06,15.08834339,0.0001513,53.2165,269.0754,90.2335,269.8831,9.8722e-05,1.283e-05,0.0,0 STARLINK-4545,1 53421U 22097AK  23248.05007855  .00001283  00000-0  98722-4 0  9990,2 53421  53.2165 269.0754 0001513  90.2335 269.8831 15.08834339 59784,6917.898,95.438,540.809,538.716,0.0
53421.0,STARLINK-4545,PAYLOAD,2023-09-06 12:10:35,15.08849382,0.0001423,53.2159,262.5332,92.2359,267.8796,0.00028963,4.326e-05,0.0,0 STARLINK-4545,1 53421U 22097AK  23249.50735405  .00004326  00000-0  28963-3 0  9990,2 53421  53.2159 262.5332 0001423  92.2359 267.8796 15.08849382 60464,6917.852,95.437,540.701,538.732,0.0
53421.0,STARLINK-4545,PAYLOAD,2023-09-06 18:32:08,15.08838653,0.0002135,53.2144,261.3463,78.3562,281.7669,0.00012609,1.719e-05,0.0,0 STARLINK-4545,1 53421U 22097AK  23249.77232237  .00001719  00000-0  12609-3 0  9997,2 53421  53.2144 261.3463 0002135  78.3562 281.7669 15.08838653 60500,6917.885,95.438,541.226,538.273,0.0
53421.0,STARLINK-4545,PAYLOAD,2023-09-07 12:01:22,15.08841717,0.0001422,53.2165,258.0727,87.7117,272.4038,7.0005e-05,8.26e-06,0.0,0 STARLINK-4545,1 53421U 22097AK  23250.50095829  .00000826  00000-0  70005-4 0  9997,2 53421  53.2165 258.0727 0001422  87.7117 272.4038 15.08841717 60611,6917.875,95.437,540.724,538.756,0.0
53421.0,STARLINK-4545,PAYLOAD,2023-09-08 07:05:59,15.08874159,0.0001654,53.2169,254.5042,85.2809,274.8372,-0.00033596,-5.636e-05,0.0,0 STARLINK-4545,1 53421U 22097AK  23251.29582408 -.00005636  00000-0 -33596-3 0  9997,2 53421  53.2169 254.5042 0001654  85.2809 274.8372 15.08874159 60279,6917.776,95.435,540.785,538.497,0.0
53421.0,STARLINK-4545,PAYLOAD,2023-09-08 11:52:08,15.08856504,0.0001543,53.2164,253.6118,95.6539,264.463,-9.4345e-05,-1.79e-05,0.0,0 STARLINK-4545,1 53421U 22097AK  23251.49454858 -.00001790  00000-0 -94345-4 0  9993,2 53421  53.2164 253.6118 0001543  95.6539 264.4630 15.08856504 60760,6917.83,95.437,540.762,538.628,0.0
53421.0,STARLINK-4545,PAYLOAD,2023-09-09 00:35:14,15.08838982,0.0001474,53.2166,251.2322,89.6178,270.4983,0.0001182,1.594e-05,0.0,0 STARLINK-4545,1 53421U 22097AK  23252.02447903  .00001594  00000-0  11820-3 0  9992,2 53421  53.2166 251.2322 0001474  89.6178 270.4983 15.08838982 60384,6917.884,95.438,540.768,538.729,0.0
53421.0,STARLINK-4545,PAYLOAD,2023-09-09 06:56:47,15.08823699,0.0001517,53.2172,250.044,87.7159,272.4007,0.00028689,4.279e-05,0.0,0 STARLINK-4545,1 53421U 22097AK  23252.28944431  .00004279  00000-0  28689-3 0  9992,2 53421  53.2172 250.0440 0001517  87.7159 272.4007 15.08823699 60428,6917.93,95.439,540.845,538.746,0.0
53421.0,STARLINK-4545,PAYLOAD,2023-09-09 11:42:56,15.08843885,0.0001395,53.2172,249.151,88.4035,271.7117,0.00012189,1.653e-05,0.0,0 STARLINK-4545,1 53421U 22097AK  23252.48815691  .00001653  00000-0  12189-3 0  9990,2 53421  53.2172 249.1510 0001395  88.4035 271.7117 15.08843885 60917,6917.869,95.437,540.699,538.768,0.0
53421.0,STARLINK-4545,PAYLOAD,2023-09-09 16:29:06,15.08840622,0.0001344,53.2169,248.2595,88.8486,271.266,8.5626e-05,1.075e-05,0.0,0 STARLINK-4545,1 53421U 22097AK  23252.68688010  .00001075  00000-0  85626-4 0  9990,2 53421  53.2169 248.2595 0001344  88.8486 271.2660 15.08840622 60480,6917.878,95.438,540.673,538.814,0.0
53421.0,STARLINK-4545,PAYLOAD,2023-09-10 06:47:34,15.08846526,0.0001356,53.2173,245.5841,97.1348,262.9798,8.5171e-05,1.068e-05,0.0,0 STARLINK-4545,1 53421U 22097AK  23253.28303665  .00001068  00000-0  85171-4 0  9994,2 53421  53.2173 245.5841 0001356  97.1348 262.9798 15.08846526 61032,6917.86,95.437,540.664,538.787,0.0
53421.0,STARLINK-4545,PAYLOAD,2023-09-10 22:41:26,15.08830931,0.000134,53.2163,242.6102,91.2049,268.9097,-1.0132e-05,-4.49e-06,0.0,0 STARLINK-4545,1 53421U 22097AK  23253.94544391 -.00000449  00000-0 -10132-4 0  9999,2 53421  53.2163 242.6102 0001340  91.2049 268.9097 15.08830931 60675,6917.908,95.438,540.7,538.846,0.0
53421.0,STARLINK-4545,PAYLOAD,2023-09-11 11:24:31,15.08839192,0.0001369,53.2171,240.2311,93.5597,266.5552,7.553e-05,9.14e-06,0.0,0 STARLINK-4545,1 53421U 22097AK  23254.47536491  .00000914  00000-0  75530-4 0  9998,2 53421  53.2171 240.2311 0001369  93.5597 266.5552 15.08839192 61213,6917.883,95.438,540.695,538.801,0.0
53421.0,STARLINK-4545,PAYLOAD,2023-09-11 22:32:13,15.08839606,0.0001373,53.2172,238.1492,91.5499,268.565,0.00013392,1.844e-05,0.0,0 STARLINK-4545,1 53421U 22097AK  23254.93904469  .00001844  00000-0  13392-3 0  9993,2 53421  53.2172 238.1492 0001373  91.5499 268.5650 15.08839606 60821,6917.882,95.438,540.696,538.797,0.0
